CCSDS_OMM_VERS,COMMENT,CREATION_DATE,ORIGINATOR,OBJECT_NAME,OBJECT_ID,CENTER_NAME,REF_FRAME,TIME_SYSTEM,MEAN_ELEMENT_THEORY,EPOCH,MEAN_MOTION,ECCENTRICITY,INCLINATION,RA_OF_ASC_NODE,ARG_OF_PERICENTER,MEAN_ANOMALY,EPHEMERIS_TYPE,CLASSIFICATION_TYPE,NORAD_CAT_ID,ELEMENT_SET_NO,REV_AT_EPOCH,BSTAR,MEAN_MOTION_DOT,MEAN_MOTION_DDOT,SEMIMAJOR_AXIS,PERIOD,APOAPSIS,PERIAPSIS,OBJECT_TYPE,RCS_SIZE,COUNTRY_CODE,LAUNCH_DATE,SITE,DECAY_DATE,FILE,GP_ID,TLE_LINE0,TLE_LINE1,TLE_LINE2
"2.0","GENERATED VIA SPACE-TRACK.ORG API","2012-07-20T17:05:19","18 SPCS","BLITS","2009-049G","EARTH","TEME","UTC","SGP4","2012-07-20T17:03:27.873792","14.21584259","0.00033530","98.6466","255.5259","325.3606","34.7337","0","U","35871","999","14672","0.00001307400000","-0.00000015","0.0000000000000","7198.141","101.295","822.420","817.592","PAYLOAD","SMALL","CIS","2009-09-17","TTMTR","","1321392","89689009","0 BLITS","1 35871U 09049G   12202.71073928 -.00000015  00000-0  13074-4 0  9996","2 35871 098.6466 255.5259 0003353 325.3606 034.7337 14.21584259146725"
"2.0","GENERATED VIA SPACE-TRACK.ORG API","2012-07-21T00:59:18","18 SPCS","BLITS","2009-049G","EARTH","TEME","UTC","SGP4","2012-07-21T03:11:34.874592","14.21584234","0.00033250","98.6469","255.9399","324.0387","36.0565","0","U","35871","999","14678","0.00001099100000","-0.00000019","0.0000000000000","7198.141","101.295","822.399","817.613","PAYLOAD","SMALL","CIS","2009-09-17","TTMTR","","1321540","89691880","0 BLITS","1 35871U 09049G   12203.13304253 -.00000019  00000-0  10991-4 0  9990","2 35871 098.6469 255.9399 0003325 324.0387 036.0565 14.21584234146785"
"2.0","GENERATED VIA SPACE-TRACK.ORG API","2012-07-21T16:44:12","18 SPCS","BLITS","2009-049G","EARTH","TEME","UTC","SGP4","2012-07-21T16:42:24.186528","14.21584134","0.00032980","98.6470","256.4916","322.4314","37.6622","0","U","35871","999","14686","0.00000777120000","-0.00000026","0.0000000000000","7198.141","101.295","822.380","817.633","PAYLOAD","SMALL","CIS","2009-09-17","TTMTR","","1321796","89704927","0 BLITS","1 35871U 09049G   12203.69611327 -.00000026  00000-0  77712-5 0  9997","2 35871 098.6470 256.4916 0003298 322.4314 037.6622 14.21584134146868"
"2.0","GENERATED VIA SPACE-TRACK.ORG API","2012-07-22T00:45:36","18 SPCS","BLITS","2009-049G","EARTH","TEME","UTC","SGP4","2012-07-22T02:50:31.200287","14.21584201","0.00032890","98.6467","256.9054","321.0488","39.0471","0","U","35871","999","14692","0.00000895250000","-0.00000024","0.0000000000000","7198.141","101.295","822.374","817.639","PAYLOAD","SMALL","CIS","2009-09-17","TTMTR","","1321920","89707449","0 BLITS","1 35871U 09049G   12204.11841667 -.00000024  00000-0  89525-5 0  9990","2 35871 098.6467 256.9054 0003289 321.0488 039.0471 14.21584201146929"
"2.0","GENERATED VIA SPACE-TRACK.ORG API","2012-07-22T16:42:02","18 SPCS","BLITS","2009-049G","EARTH","TEME","UTC","SGP4","2012-07-22T16:21:20.461248","14.21584304","0.00032310","98.6469","257.4571","319.3850","40.7089","0","U","35871","999","14700","0.00001164900000","-0.00000018","0.0000000000000","7198.141","101.295","822.332","817.680","PAYLOAD","SMALL","CIS","2009-09-17","TTMTR","","1322218","89721179","0 BLITS","1 35871U 09049G   12204.68148682 -.00000018  00000-0  11649-4 0  9993","2 35871 098.6469 257.4571 0003231 319.3850 040.7089 14.21584304147009"
"2.0","GENERATED VIA SPACE-TRACK.ORG API","2012-07-23T08:15:54","18 SPCS","BLITS","2009-049G","EARTH","TEME","UTC","SGP4","2012-07-22T19:44:02.781023","14.21584154","0.00031850","98.6465","257.5945","318.9830","41.1090","0","U","35871","999","14702","0.00000674370000","-0.00000029","0.0000000000000","7198.141","101.295","822.299","817.714","PAYLOAD","SMALL","CIS","2009-09-17","TTMTR","","1322460","89733035","0 BLITS","1 35871U 09049G   12204.82225441 -.00000029 +00000-0 +67437-5 0  9997","2 35871 098.6465 257.5945 0003185 318.9830 041.1090 14.21584154147024"
"2.0","GENERATED VIA SPACE-TRACK.ORG API","2012-07-23T00:44:59","18 SPCS","BLITS","2009-049G","EARTH","TEME","UTC","SGP4","2012-07-23T00:48:06.300863","14.21584165","0.00031770","98.6463","257.8011","318.5207","41.5727","0","U","35871","999","14705","0.00000688230000","-0.00000028","0.0000000000000","7198.141","101.295","822.293","817.720","PAYLOAD","SMALL","CIS","2009-09-17","TTMTR","","1322338","89723631","0 BLITS","1 35871U 09049G   12205.03340626 -.00000028  00000-0  68823-5 0  9993","2 35871 098.6463 257.8011 0003177 318.5207 041.5727 14.21584165147050"
"2.0","GENERATED VIA SPACE-TRACK.ORG API","2012-07-23T08:55:37","18 SPCS","BLITS","2009-049G","EARTH","TEME","UTC","SGP4","2012-07-23T02:29:27.467231","14.21584353","0.00030980","98.6445","257.8698","316.6276","43.4682","0","U","35871","999","14706","0.00001206800000","-0.00000017","0.0000000000000","7198.141","101.295","822.236","817.776","PAYLOAD","SMALL","CIS","2009-09-17","TTMTR","","1322515","89734358","0 BLITS","1 35871U 09049G   12205.10379013 -.00000017  00000-0  12068-4 0  9990","2 35871 098.6445 257.8698 0003098 316.6276 043.4682 14.21584353147069"
"2.0","GENERATED VIA SPACE-TRACK.ORG API","2012-07-23T16:48:09","18 SPCS","BLITS","2009-049G","EARTH","TEME","UTC","SGP4","2012-07-23T16:00:16.711776","14.21584499","0.00029970","98.6443","258.4215","314.9787","45.1150","0","U","35871","999","14714","0.00001618700000","-0.00000008","0.0000000000000","7198.140","101.295","822.163","817.848","PAYLOAD","SMALL","CIS","2009-09-17","TTMTR","","1322754","89737302","0 BLITS","1 35871U 09049G   12205.66686009 -.00000008  00000-0  16187-4 0  9993","2 35871 098.6443 258.4215 0002997 314.9787 045.1150 14.21584499147143"
"2.0","GENERATED VIA SPACE-TRACK.ORG API","2012-07-24T08:28:28","18 SPCS","BLITS","2009-049G","EARTH","TEME","UTC","SGP4","2012-07-23T19:22:59.032416","14.21584161","0.00029040","98.6428","258.5582","314.4187","45.6717","0","U","35871","999","14716","0.00000373560000","-0.00000035","0.0000000000000","7198.141","101.295","822.097","817.916","PAYLOAD","SMALL","CIS","2009-09-17","TTMTR","","1323031","89749077","0 BLITS","1 35871U 09049G   12205.80762769 -.00000035 +00000-0 +37356-5 0  9999","2 35871 098.6428 258.5582 0002904 314.4187 045.6717 14.21584161147163"
"2.0","GENERATED VIA SPACE-TRACK.ORG API","2012-07-24T00:58:09","18 SPCS","BLITS","2009-049G","EARTH","TEME","UTC","SGP4","2012-07-24T02:08:23.747136","14.21584215","0.00028580","98.6428","258.8344","313.7494","46.3452","0","U","35871","999","14720","0.00000520700000","-0.00000032","0.0000000000000","7198.141","101.295","822.063","817.949","PAYLOAD","SMALL","CIS","2009-09-17","TTMTR","","1322898","89739778","0 BLITS","1 35871U 09049G   12206.08916374 -.00000032  00000-0  52070-5 0  9990","2 35871 098.6428 258.8344 0002858 313.7494 046.3452 14.21584215147202"
"2.0","GENERATED VIA SPACE-TRACK.ORG API","2012-07-24T09:09:56","18 SPCS","BLITS","2009-049G","EARTH","TEME","UTC","SGP4","2012-07-24T13:57:51.881472","14.21584161","0.00027790","98.6427","259.3171","310.9015","49.1929","0","U","35871","999","14727","0.00000210400000","-0.00000039","0.0000000000000","7198.141","101.295","822.007","818.006","PAYLOAD","SMALL","CIS","2009-09-17","TTMTR","","1323106","89750620","0 BLITS","1 35871U 09049G   12206.58185048 -.00000039  00000-0  21040-5 0  9991","2 35871 098.6427 259.3171 0002779 310.9015 049.1929 14.21584161147272"
"2.0","GENERATED VIA SPACE-TRACK.ORG API","2012-07-24T16:52:21","18 SPCS","BLITS","2009-049G","EARTH","TEME","UTC","SGP4","2012-07-24T17:20:34.196927","14.21584087","0.00027960","98.6428","259.4551","311.6601","48.4320","0","U","35871","999","14729","0.00000019794000","-0.00000043","0.0000000000000","7198.142","101.295","822.019","817.994","PAYLOAD","SMALL","CIS","2009-09-17","TTMTR","","1323596","89753017","0 BLITS","1 35871U 09049G   12206.72261802 -.00000043  00000-0  19794-6 0  9999","2 35871 098.6428 259.4551 0002796 311.6601 048.4320 14.21584087147290"
"2.0","GENERATED VIA SPACE-TRACK.ORG API","2012-07-25T16:02:56","18 SPCS","BLITS","2009-049G","EARTH","TEME","UTC","SGP4","2012-07-25T20:22:12.851039","14.21584800","0.00028770","98.6426","260.5560","305.5534","54.5466","0","U","35871","999","14745","0.00002321800000","0.00000008","0.0000000000000","7198.139","101.295","822.075","817.933","PAYLOAD","SMALL","CIS","2009-09-17","TTMTR","","1324053","89766787","0 BLITS","1 35871U 09049G   12207.84875985  .00000008  00000-0  23218-4 0  9990","2 35871 098.6426 260.5560 0002877 305.5534 054.5466 14.21584800147458"
"2.0","GENERATED VIA SPACE-TRACK.ORG API","2012-07-26T01:37:19","18 SPCS","BLITS","2009-049G","EARTH","TEME","UTC","SGP4","2012-07-26T01:26:16.180800","14.21585124","0.00029510","98.6430","260.7616","306.6492","53.4428","0","U","35871","999","14748","0.00003379800000","0.00000031","0.0000000000000","7198.138","101.295","822.127","817.879","PAYLOAD","SMALL","CIS","2009-09-17","TTMTR","","1324267","89770558","0 BLITS","1 35871U 09049G   12208.05990950  .00000031  00000-0  33798-4 0  9994","2 35871 098.6430 260.7616 0002951 306.6492 053.4428 14.21585124147484"
"2.0","GENERATED VIA SPACE-TRACK.ORG API","2012-07-26T06:11:54","18 SPCS","BLITS","2009-049G","EARTH","TEME","UTC","SGP4","2012-07-26T03:07:37.316064","14.21585053","0.00029290","98.6430","260.8306","306.6067","53.4833","0","U","35871","999","14749","0.00003036700000","0.00000023","0.0000000000000","7198.138","101.295","822.112","817.895","PAYLOAD","SMALL","CIS","2009-09-17","TTMTR","","1324372","89773114","0 BLITS","1 35871U 09049G   12208.13029301  .00000023  00000-0  30367-4 0  9996","2 35871 098.6430 260.8306 0002929 306.6067 053.4833 14.21585053147496"
